ONEWEB-0324             
1 49193U 21083H   21332.91668981  .00000015  00000+0  00000+0 0  9993
2 49193  87.8427 305.8599 0023520  55.5592 210.2405 13.65573308  3420
ONEWEB-0325             
1 49194U 21083J   21332.91668981  .00000015  00000+0  00000+0 0  9994
2 49194  87.8470 305.7925 0022175  51.0197   8.7208 13.73162364  3424
ONEWEB-0326             
1 49195U 21083K   21332.91668981  .00000015  00000+0  00000+0 0  9995
2 49195  87.8530 305.8264 0024545  46.6575  27.7324 13.61880122  3439
ONEWEB-0327             
1 49196U 21083L   21332.91668981  .00016932  00000+0  18190-1 0  9992
2 49196  87.8615 305.8453 0023397  56.5156 228.6749 13.73262744  3422
ONEWEB-0328             
1 49197U 21083M   21332.91668981  .00009950  00000+0  11022-2 0  9993
2 49197  87.1974 301.6301 0020450  42.3526 268.1482 14.87065385  3556
ONEWEB-0331             
1 49198U 21083N   21332.91668981  .00000015  00000+0  00000+0 0  9998
2 49198  87.8699 305.8151 0022223  53.1373  40.3551 13.65170114  3433
ONEWEB-0333             
1 49199U 21083P   21332.91668981  .00008940  00000+0  98918-3 0  9993
2 49199  87.2014 301.6649 0020130  41.9027 231.1386 14.87108896  3553
ONEWEB-0334             
1 49200U 21083Q   21332.91668981  .00005783  00000+0  59904-3 0  9990
2 49200  87.1990 301.5481 0022708  35.8942 127.7964 14.89682294  3555
ONEWEB-0335             
1 49201U 21083R   21332.91668981  .00008594  00000+0  94994-3 0  9992
2 49201  87.2015 301.6804 0022523  31.4380  30.3027 14.87109263  3544
ONEWEB-0336             
1 49202U 21083S   21332.91668981  .00006432  00000+0  71111-3 0  9998
2 49202  87.1990 301.6565 0020283  30.3142 106.1336 14.87106534  3559
ONEWEB-0337             
1 49203U 21083T   21332.91668981 -.00057218  00000+0 -64085-2 0  9990
2 49203  87.1997 301.6630 0022274  35.1671  85.2469 14.87110131  3554
ONEWEB-0338             
1 49204U 21083U   21332.91668981  .00008835  00000+0  91660-3 0  9990
2 49204  87.2048 301.6028 0022309  42.0753   3.8626 14.89678794  3569
ONEWEB-0339             
1 49205U 21083V   21332.91668981  .00005852  00000+0  64697-3 0  9997
2 49205  87.1983 301.6433 0020438  35.5131 149.1073 14.87093686  3553
ONEWEB-0340             
1 49206U 21083W   21332.91668981  .00000015  00000+0  00000+0 0  9998
2 49206  87.8306 305.8270 0019752  54.7751 314.1714 13.59882657  3427
ONEWEB-0341             
1 49207U 21083X   21332.91668981  .00000015  00000+0  00000+0 0  9999
2 49207  87.8071 305.7864 0022343  57.4423 122.6045 13.68442388  3423
ONEWEB-0342             
1 49208U 21083Y   21332.91668981  .00006179  00000+0  64010-3 0  9992
2 49208  87.2013 301.5697 0022633  30.5812 177.1577 14.89695034  3559
ONEWEB-0343             
1 49209U 21083Z   21332.91668981  .00000015  00000+0  00000+0 0  9991
2 49209  87.8684 305.8149 0023787  51.1103 209.0736 13.74849299  3427
ONEWEB-0344             
1 49210U 21083AA  21332.91668981  .00008269  00000+0  91482-3 0  9990
2 49210  87.1971 301.6429 0021465  29.5987  41.0938 14.87090155  3541
ONEWEB-0345             
1 49211U 21083AB  21332.91668981  .00007228  00000+0  79888-3 0  9991
2 49211  87.1991 301.6585 0021280  33.2577  74.6140 14.87114967  3555
ONEWEB-0346             
1 49212U 21083AC  21332.91668981  .00000015  00000+0  00000+0 0  9995
2 49212  87.8182 305.8182 0020879  58.8730 270.9612 13.64247606  3412
ONEWEB-0348             
1 49213U 21083AD  21332.91668981  .00005811  00000+0  60209-3 0  9996
2 49213  87.2037 301.5942 0022136  34.8983 136.6957 14.89682441  3558
ONEWEB-0350             
1 49214U 21083AE  21332.91668981  .00006374  00000+0  70452-3 0  9993
2 49214  87.1999 301.6548 0019172  40.6051 171.8127 14.87131165  3555
ONEWEB-0351             
1 49215U 21083AF  21332.91668981  .00081315  00000+0  83836-2 0  9991
2 49215  87.1969 301.5313 0019731  28.8282 270.6440 14.89677278  3555
ONEWEB-0352             
1 49216U 21083AG  21332.91668981  .00005851  00000+0  64690-3 0  9991
2 49216  87.1997 301.6608 0019619  37.9076 137.0304 14.87100454  3552
ONEWEB-0354             
1 49217U 21083AH  21332.91668981  .00005778  00000+0  59947-3 0  9999
2 49217  87.2020 301.5695 0019783  26.9815 162.8300 14.89670766  3559
ONEWEB-0355             
1 49218U 21083AJ  21332.91668981  .00008385  00000+0  92659-3 0  9994
2 49218  87.1976 301.6268 0019738  41.5428 221.1569 14.87165896  3556
ONEWEB-0357             
1 49219U 21083AK  21332.91668981  .00006490  00000+0  67326-3 0  9993
2 49219  87.2014 301.5728 0021792  36.2039  92.5172 14.89656193  3550
ONEWEB-0332             
1 49279U 21090A   21332.91668981 -.00042292  00000+0 -45958-2 0  9995
2 49279  87.1970 277.5142 0010598  94.7054 166.7795 14.88407948  3574
ONEWEB-0347             
1 49280U 21090B   21332.91668981 -.00038999  00000+0 -42363-2 0  9993
2 49280  87.2004 277.5372 0011858 115.3002 191.7251 14.88395164  3563
ONEWEB-0349             
1 49281U 21090C   21332.91668981 -.00248645  00000+0 -25952-1 0  9999
2 49281  87.2024 277.4769 0014387 102.1690 266.1683 14.91145130  3579
ONEWEB-0353             
1 49282U 21090D   21332.91668981 -.00041528  00000+0 -45107-2 0  9996
2 49282  87.1981 277.5108 0012136 101.7744 170.5961 14.88408375  3570
ONEWEB-0356             
1 49283U 21090E   21332.91668981 -.00042461  00000+0 -43300-2 0  9997
2 49283  87.2022 277.4869 0009946 107.5667  35.3050 14.90977092  3560
ONEWEB-0358             
1 49284U 21090F   21332.91668981 -.00041970  00000+0 -45587-2 0  9991
2 49284  87.1970 277.5094 0010355  94.7733 171.4437 14.88427073  3578
ONEWEB-0359             
1 49285U 21090G   21332.91668981 -.00037222  00000+0 -40416-2 0  9993
2 49285  87.2006 277.5314 0011103 114.5173 254.9331 14.88410489  3579
ONEWEB-0360             
1 49286U 21090H   21332.91668981 -.00041151  00000+0 -41942-2 0  9995
2 49286  87.2031 277.4913 0008950 102.9765  17.4125 14.90998806  3576
ONEWEB-0361             
1 49287U 21090J   21332.91668981 -.00044610  00000+0 -45508-2 0  9991
2 49287  87.2028 277.4867 0011009 109.6397 100.1508 14.90963958  3581
ONEWEB-0362             
1 49288U 21090K   21332.91668981 -.00945868  00000+0 -22288+0 0  9994
2 49288  87.4751 278.3677 0009323 105.3761 134.0012 14.57314088  3549
ONEWEB-0363             
1 49289U 21090L   21332.91668981 -.00041008  00000+0 -41813-2 0  9996
2 49289  87.2045 277.4992 0008625 106.1418  11.8756 14.90984199  3568
ONEWEB-0364             
1 49290U 21090M   21332.91668981 -.00037214  00000+0 -40387-2 0  9997
2 49290  87.2012 277.5390 0012783 112.7177 252.5544 14.88415267  3574
ONEWEB-0365             
1 49291U 21090N   21332.91668981 -.00964466  00000+0 -24522+0 0  9996
2 49291  87.4775 278.3959 0010365  99.1351   4.7855 14.53841397  3569
ONEWEB-0366             
1 49292U 21090P   21332.91668981 -.00044151  00000+0 -48005-2 0  9992
2 49292  87.1993 277.5183 0010878  95.1739 130.6308 14.88392608  3571
ONEWEB-0367             
1 49293U 21090Q   21332.91668981 -.00038849  00000+0 -39614-2 0  9996
2 49293  87.2065 277.5132 0008975 100.7384 331.9816 14.90968816  3574
ONEWEB-0368             
1 49294U 21090R   21332.91668981 -.00038698  00000+0 -42007-2 0  9999
2 49294  87.2035 277.5446 0013333 106.4342 328.7026 14.88408231  3564
ONEWEB-0369             
1 49295U 21090S   21332.91668981 -.01014249  00000+0 -25662+0 0  9992
2 49295  87.4729 278.3915 0009712 100.1571  24.2368 14.54231749  3555
ONEWEB-0370             
1 49296U 21090T   21332.91668981 -.00043856  00000+0 -44746-2 0  9995
2 49296  87.2010 277.4743 0012868 106.5463 122.6553 14.90936735  3581
ONEWEB-0371             
1 49297U 21090U   21332.91668981 -.01032460  00000+0 -24845+0 0  9991
2 49297  87.4755 278.3781 0007380 114.7686 152.2691 14.56631775  3549
ONEWEB-0372             
1 49298U 21090V   21332.91668981 -.00037742  00000+0 -38447-2 0  9995
2 49298  87.2016 277.4679 0013851 103.1448 237.0750 14.90958592  3570
ONEWEB-0373             
1 49299U 21090W   21332.91668981 -.00043747  00000+0 -47573-2 0  9998
2 49299  87.1991 277.5231 0010742  97.5873  75.5721 14.88385438  3563
ONEWEB-0374             
1 49300U 21090X   21332.91668981 -.00042860  00000+0 -46593-2 0  9997
2 49300  87.2019 277.5439 0010602 115.0035 137.3799 14.88395530  3554
ONEWEB-0375             
1 49301U 21090Y   21332.91668981 -.00038345  00000+0 -41654-2 0  9994
2 49301  87.1968 277.5121 0008427  97.7447 216.3096 14.88418675  3576
ONEWEB-0376             
1 49302U 21090Z   21332.91668981 -.01017935  00000+0 -23992+0 0  9990
2 49302  87.4782 278.3886 0008700 108.1061 191.4368 14.57530960  3544
ONEWEB-0377             
1 49303U 21090AA  21332.91668981 -.00037304  00000+0 -40507-2 0  9996
2 49303  87.2011 277.5447 0011053 119.4431 261.9083 14.88408962  3573
ONEWEB-0378             
1 49304U 21090AB  21332.91668981 -.00038019  00000+0 -38741-2 0  9998
2 49304  87.1969 277.4455 0013520  83.3053 318.9999 14.90951164  3594
ONEWEB-0379             
1 49305U 21090AC  21332.91668981 -.00037737  00000+0 -40943-2 0  9992
2 49305  87.2004 277.5278 0013312 106.3901 297.4492 14.88423344  3564
ONEWEB-0380             
1 49306U 21090AD  21332.91668981 -.00964044  00000+0 -23508+0 0  9998
2 49306  87.4882 278.3974 0009464 114.6786 211.2717 14.55788874  3558
ONEWEB-0381             
1 49307U 21090AE  21332.91668981 -.00044303  00000+0 -45192-2 0  9992
2 49307  87.2056 277.4989 0009889 108.5315  73.9250 14.90974677  3571
ONEWEB-0382             
1 49308U 21090AF  21332.91668981 -.00041829  00000+0 -41784-2 0  9996
2 49308  87.2007 277.4524 0014330  89.1696  40.8637 14.91756644  3560
ONEWEB-0383             
1 49309U 21090AG  21332.91668981 -.00037279  00000+0 -40460-2 0  9991
2 49309  87.1994 277.5185 0013154 101.2807 252.6887 14.88408655  3597
ONEWEB-0384             
1 49310U 21090AH  21332.91668981 -.00041569  00000+0 -42391-2 0  9995
2 49310  87.1999 277.4661 0013567  88.5271  38.7253 14.90937546  3580
